GLOBALSTAR M001 [-]     
1 25162U 98008A   24004.96316937 -.00000139  00000+0 -32282-3 0  9999
2 25162  52.0044  73.5228 0001847 197.6556 215.1853 12.38174600178260
GLOBALSTAR M004 [-]     
1 25163U 98008B   24005.05691719 -.00000053  00000+0  28050-3 0  9997
2 25163  51.9971 228.3445 0002663 174.2565 349.7678 12.63347443194900
GLOBALSTAR M006 [-]     
1 25307U 98023B   24004.66342572 -.00000094  00000+0 -37614-3 0  9992
2 25307  51.9944  94.9199 0003579 224.2696 284.9839 11.58157375155475
GLOBALSTAR M015 [-]     
1 25308U 98023C   24004.62376767 -.00000054  00000+0  45222-3 0  9991
2 25308  51.9789 169.2230 0011903 206.0748 233.9552 11.48857431133584
GLOBALSTAR M008 [-]     
1 25309U 98023D   24004.97999336 -.00000071  00000+0  19725-3 0  9991
2 25309  51.9981 292.3148 0002691 124.6409 315.6838 12.36034465172713
